[{"OBJECT_NAME":"STARLINK-2055","OBJECT_ID":"2021-005K","EPOCH":"2026-03-09T21:52:59.058624","MEAN_MOTION":15.06396353,"ECCENTRICITY":0.00013224,"INCLINATION":53.057,"RA_OF_ASC_NODE":30.6125,"ARG_OF_PERICENTER":88.6807,"MEAN_ANOMALY":271.4333,"EPHEMERIS_TYPE":0,"CLASSIFICATION_TYPE":"U","NORAD_CAT_ID":47358,"ELEMENT_SET_NO":999,"REV_AT_EPOCH":28349,"BSTAR":-9.4459261e-5,"MEAN_MOTION_DOT":-1.688e-5,"MEAN_MOTION_DDOT":0},{"OBJECT_NAME":"LEMUR-2-LLOYD","OBJECT_ID":"2024-149DP","EPOCH":"2026-03-09T11:02:25.245024","MEAN_MOTION":15.07168338,"ECCENTRICITY":0.00051866,"INCLINATION":97.678,"RA_OF_ASC_NODE":149.6779,"ARG_OF_PERICENTER":125.6096,"MEAN_ANOMALY":234.5616,"EPHEMERIS_TYPE":0,"CLASSIFICATION_TYPE":"U","NORAD_CAT_ID":60577,"ELEMENT_SET_NO":999,"REV_AT_EPOCH":8536,"BSTAR":0.00080142638,"MEAN_MOTION_DOT":0.00012007,"MEAN_MOTION_DDOT":0}]
